[{"OBJECT_NAME":"CUPID","OBJECT_ID":"2021-088E","EPOCH":"2026-03-09T16:04:42.796128","MEAN_MOTION":15.24473777,"ECCENTRICITY":0.0013746,"INCLINATION":97.3985,"RA_OF_ASC_NODE":131.0756,"ARG_OF_PERICENTER":59.9938,"MEAN_ANOMALY":300.2662,"EPHEMERIS_TYPE":0,"CLASSIFICATION_TYPE":"U","NORAD_CAT_ID":49264,"ELEMENT_SET_NO":999,"REV_AT_EPOCH":24501,"BSTAR":0.00038662302,"MEAN_MOTION_DOT":9.454e-5,"MEAN_MOTION_DDOT":0},{"OBJECT_NAME":"OPS 0252","OBJECT_ID":"1983-008A","EPOCH":"2026-03-09T17:05:48.785280","MEAN_MOTION":13.86595094,"ECCENTRICITY":0.06891162,"INCLINATION":63.3075,"RA_OF_ASC_NODE":208.1784,"ARG_OF_PERICENTER":134.6802,"MEAN_ANOMALY":231.2568,"EPHEMERIS_TYPE":0,"CLASSIFICATION_TYPE":"U","NORAD_CAT_ID":13791,"ELEMENT_SET_NO":999,"REV_AT_EPOCH":9249,"BSTAR":0.00087750094,"MEAN_MOTION_DOT":7.26e-5,"MEAN_MOTION_DDOT":0}]
